PROBA-1                 
1 26958U 01049B   26203.31442272  .00001982  00000+0  13036-3 0  9997
2 26958  97.9606 213.0770 0054941   5.7285 354.4558 15.07632660348914
CUTE-1 (CO-55)          
1 27844U 03031E   26203.02043421  .00000248  00000+0  12599-3 0  9993
2 27844  98.6746 211.1424 0010865  85.1990 275.0430 14.24354732196635
CUBESAT XI-IV (CO-57)   
1 27848U 03031J   26202.46414799  .00000171  00000+0  94004-4 0  9991
2 27848  98.6777 210.2780 0010700 103.0346 257.2027 14.23636890196250
APRIZESAT 4             
1 35684U 09041D   26203.18625292  .00000598  00000+0  77922-4 0  9990
2 35684  98.1397 279.2025 0042681 206.4291 153.4745 14.83920938916559
APRIZESAT 3             
1 35686U 09041F   26203.14026862  .00000412  00000+0  41161-4 0  9997
2 35686  98.2106 358.0494 0060681 312.6036  47.0074 14.96319841921607
PROBA-2                 
1 36037U 09059B   26203.10955420  .00000144  00000+0  44145-4 0  9991
2 36037  98.2464  25.9806 0013502 167.4432 192.7104 14.54875678886609
APRIZESAT 5             
1 37792U 11044E   26203.27227692  .00000615  00000+0  85043-4 0  9993
2 37792  98.2447 137.3092 0050761 249.2894 110.2872 14.81135470803989
APRIZESAT 6             
1 37793U 11044F   26202.57456081  .00000515  00000+0  80110-4 0  9991
2 37793  98.2330 113.7726 0042548 337.7541 145.3309 14.76963178802227
PROBA-V                 
1 39159U 13021A   26202.90999959  .00000055  00000+0  42036-4 0  9993
2 39159  98.3611 179.8069 0004984  44.0739 316.0837 14.23604343686052
APRIZESAT 7             
1 39416U 13066A   26203.30586063  .00000915  00000+0  95551-4 0  9996
2 39416  97.7724 156.0258 0037373  94.6844 265.8644 14.91631194686460
APRIZESAT 8             
1 39425U 13066K   26203.11678136  .00000688  00000+0  80275-4 0  9992
2 39425  97.8232 150.1014 0046088 169.0703 191.1526 14.87704502684865
BUGSAT-1 (TITA)         
1 40014U 14033E   26203.28790521  .00005322  00000+0  27873-3 0  9998
2 40014  98.0423 297.8986 0028787  62.9227 297.4936 15.15928841661159
SAUDISAT 4              
1 40016U 14033G   26203.21803043  .00000412  00000+0  61084-4 0  9995
2 40016  97.7627 348.1506 0043746 320.8140  38.9907 14.79580722651250
APRIZESAT 9             
1 40018U 14033J   26202.95863507  .00000527  00000+0  84438-4 0  9993
2 40018  97.9102 335.3154 0067500  88.6511 272.2429 14.74258977648688
APRIZESAT 10            
1 40019U 14033K   26203.29662844  .00000521  00000+0  89313-4 0  9994
2 40019  97.9688 329.4807 0079274 160.7576 199.6654 14.70917447647413
TECHDEMOSAT-1 (TDS-1)   
1 40076U 14037H   26202.93308356  .00007929  00000+0  44377-3 0  9995
2 40076  98.3838 198.6058 0007398 139.2463 220.9320 15.13744059653483
TECHNOSAT               
1 42829U 17042E   26203.02066400  .00002023  00000+0  14586-3 0  9993
2 42829  97.4323 359.3647 0016805 340.5949  19.4636 15.05136522491942
FLYING LAPTOP           
1 42831U 17042G   26203.31155453  .00002273  00000+0  18034-3 0  9994
2 42831  97.4845 357.5308 0019255   9.8571 350.3028 15.01342161491728
HAWK-A                  
1 43765U 18099H   26203.12815720  .00006941  00000+0  27591-3 0  9997
2 43765  97.3892 254.9126 0035371 159.8434 200.4210 15.25028457418424
HAWK-B                  
1 43794U 18099AN  26203.12605376  .00006121  00000+0  25837-3 0  9994
2 43794  97.3943 254.2519 0032069 177.6666 182.4727 15.23170974418352
HAWK-C                  
1 43799U 18099AT  26203.09023413  .00009437  00000+0  33376-3 0  9991
2 43799  97.3869 255.9617 0040973 159.6666 200.6217 15.28569045419246
SALSAT                  
1 46495U 20068K   26203.00354601  .00007429  00000+0  25648-3 0  9995
2 46495  97.8867 208.2016 0009924 169.3819 190.7631 15.30238203320688
HAWK-2C                 
1 47502U 21006CT  26203.09657209  .00006583  00000+0  19568-3 0  9991
2 47502  97.2261 246.7150 0008616  81.3343 278.8876 15.35048442304857
HAWK-2A                 
1 47505U 21006CW  26203.09869473  .00008330  00000+0  24677-3 0  9991
2 47505  97.2306 247.4160 0008175  84.5836 275.6340 15.35078103304859
HAWK-2B                 
1 47508U 21006CZ  26203.09164220  .00007778  00000+0  22963-3 0  9993
2 47508  97.2176 245.6856 0008715  83.2688 276.9547 15.35203779304852
HAWK-3B                 
1 48931U 21059BE  26203.10198682  .00052342  00000+0  39476-3 0  9997
2 48931  97.6638  43.1873 0004977 174.9491 185.1823 15.72332127283334
HAWK-3C                 
1 48948U 21059BX  26202.52887895  .00043405  00000+0  32868-3 0  9999
2 48948  97.6749  48.3011 0005323 176.3100 183.8203 15.72270850283246
HAWK-3A                 
1 48957U 21059CG  26203.10155400  .00053875  00000+0  40607-3 0  9996
2 48957  97.6698  46.1086 0005218 176.6403 183.4896 15.72338878283338
HAWK-5C                 
1 52754U 22057Y   26203.24789735  .00019311  00000+0  31663-3 0  9993
2 52754  97.6629   5.2138 0002356 310.3747  49.7299 15.52503024231782
HAWK-5B                 
1 52756U 22057AA  26203.24773064  .00019353  00000+0  31733-3 0  9997
2 52756  97.6639   3.5686 0003021 296.9714  63.1229 15.52499057231780
